{"type": "FeatureCollection", "features": [ {"type": "Feature", "properties": {"norad_id": 66707, "name": "FLOCK 4H-4", "group": "last-30-days", "lat": 17.445620075833265, "lon": 69.56458772487616, "alt_km": 516.6768921131388, "timestamp": "2025-12-26T09:30:52.341170+00:00", "meta": {"OBJECT_NAME": "FLOCK 4H-4", "OBJECT_ID": "2025-276AT", "EPOCH": "2025-12-26T03:06:21.282336", "MEAN_MOTION": 15.17251353, "ECCENTRICITY": 0.0003622, "INCLINATION": 97.4422, "RA_OF_ASC_NODE": 71.6566, "ARG_OF_PERICENTER": 236.0309, "MEAN_ANOMALY": 124.0581, "EPHEMERIS_TYPE": 0, "CLASSIFICATION_TYPE": "U", "NORAD_CAT_ID": 66707, "ELEMENT_SET_NO": 999, "REV_AT_EPOCH": 415, "BSTAR": 0.00047101, "MEAN_MOTION_DOT": 9.313e-05, "MEAN_MOTION_DDOT": 0}, "tle": {"line1": "1 66707U 25276AT  25360.12941299  .00009313  00000+0  47101-3 0  9992", "line2": "2 66707  97.4422  71.6566 0003622 236.0309 124.0581 15.17251353  4157"}}, "geometry": {"type": "Point", "coordinates": [69.56458772487616, 17.445620075833265]}}, {"type": "Feature", "properties": {"norad_id": 66708, "name": "FLOCK 4H-5", "group": "last-30-days", "lat": 66.48038022658285, "lon": -90.59029820244088, "alt_km": 503.9011493271464, "timestamp": "2025-12-26T09:30:52.341182+00:00", "meta": {"OBJECT_NAME": "FLOCK 4H-5", "OBJECT_ID": "2025-276AU", "EPOCH": "2025-12-26T04:16:33.962304", "MEAN_MOTION": 15.18210787, "ECCENTRICITY": 0.0001297, "INCLINATION": 97.4376, "RA_OF_ASC_NODE": 71.7279, "ARG_OF_PERICENTER": 123.7101, "MEAN_ANOMALY": 236.4257, "EPHEMERIS_TYPE": 0, "CLASSIFICATION_TYPE": "U", "NORAD_CAT_ID": 66708, "ELEMENT_SET_NO": 999, "REV_AT_EPOCH": 416, "BSTAR": 0.00045849, "MEAN_MOTION_DOT": 9.317e-05, "MEAN_MOTION_DDOT": 0}, "tle": {"line1": "1 66708U 25276AU  25360.17817086  .00009317  00000+0  45849-3 0  9995", "line2": "2 66708  97.4376  71.7279 0001297 123.7101 236.4257 15.18210787  4162"}}, "geometry": {"type": "Point", "coordinates": [-90.59029820244088, 66.48038022658285]}}, {"type": "Feature", "properties": {"norad_id": 66709, "name": "FLOCK 4H-6", "group": "last-30-days", "lat": 82.4984512964497, "lon": -11.133520628840591, "alt_km": 505.0124613877115, "timestamp": "2025-12-26T09:30:52.341193+00:00", "meta": {"OBJECT_NAME": "FLOCK 4H-6", "OBJECT_ID": "2025-276AV", "EPOCH": "2025-12-26T02:47:41.966016", "MEAN_MOTION": 15.17950603, "ECCENTRICITY": 0.000294, "INCLINATION": 97.4425, "RA_OF_ASC_NODE": 71.678, "ARG_OF_PERICENTER": 193.081, "MEAN_ANOMALY": 167.0348, "EPHEMERIS_TYPE": 0, "CLASSIFICATION_TYPE": "U", "NORAD_CAT_ID": 66709, "ELEMENT_SET_NO": 999, "REV_AT_EPOCH": 415, "BSTAR": 0.00032191, "MEAN_MOTION_DOT": 6.471e-05, "MEAN_MOTION_DDOT": 0}, "tle": {"line1": "1 66709U 25276AV  25360.11645794  .00006471  00000+0  32191-3 0  9999", "line2": "2 66709  97.4425  71.6780 0002940 193.0810 167.0348 15.17950603  4153"}}, "geometry": {"type": "Point", "coordinates": [-11.133520628840591, 82.4984512964497]}}, {"type": "Feature", "properties": {"norad_id": 66710, "name": "FLOCK 4H-7", "group": "last-30-days", "lat": 42.9763884579057, "lon": 64.9194657353256, "alt_km": 510.343634272901, "timestamp": "2025-12-26T09:30:52.341203+00:00", "meta": {"OBJECT_NAME": "FLOCK 4H-7", "OBJECT_ID": "2025-276AW", "EPOCH": "2025-12-26T02:59:37.165344", "MEAN_MOTION": 15.17524159, "ECCENTRICITY": 9.98e-05, "INCLINATION": 97.4384, "RA_OF_ASC_NODE": 71.6447, "ARG_OF_PERICENTER": 265.018, "MEAN_ANOMALY": 95.094, "EPHEMERIS_TYPE": 0, "CLASSIFICATION_TYPE": "U", "NORAD_CAT_ID": 66710, "ELEMENT_SET_NO": 999, "REV_AT_EPOCH": 415, "BSTAR": 0.00027429, "MEAN_MOTION_DOT": 5.435e-05, "MEAN_MOTION_DDOT": 0}, "tle": {"line1": "1 66710U 25276AW  25360.12473571  .00005435  00000+0  27429-3 0  9991", "line2": "2 66710  97.4384  71.6447 0000998 265.0180  95.0940 15.17524159  4151"}}, "geometry": {"type": "Point", "coordinates": [64.9194657353256, 42.9763884579057]}}, {"type": "Feature", "properties": {"norad_id": 66711, "name": "FLOCK 4H-8", "group": "last-30-days", "lat": 41.72625492677594, "lon": 65.23958525154461, "alt_km": 511.3611339027493, "timestamp": "2025-12-26T09:30:52.341215+00:00", "meta": {"OBJECT_NAME": "FLOCK 4H-8", "OBJECT_ID": "2025-276AX", "EPOCH": "2025-12-26T04:00:01.998720", "MEAN_MOTION": 15.17513017, "ECCENTRICITY": 0.000226, "INCLINATION": 97.4426, "RA_OF_ASC_NODE": 71.7085, "ARG_OF_PERICENTER": 251.0857, "MEAN_ANOMALY": 336.8082, "EPHEMERIS_TYPE": 0, "CLASSIFICATION_TYPE": "U", "NORAD_CAT_ID": 66711, "ELEMENT_SET_NO": 999, "REV_AT_EPOCH": 216, "BSTAR": 0.0024769, "MEAN_MOTION_DOT": 0.000499, "MEAN_MOTION_DDOT": 0}, "tle": {"line1": "1 66711U 25276AX  25360.16668980  .00049900  00000+0  24769-2 0  9994", "line2": "2 66711  97.4426  71.7085 0002260 251.0857 336.8082 15.17513017  2161"}}, "geometry": {"type": "Point", "coordinates": [65.23958525154461, 41.72625492677594]}}, {"type": "Feature", "properties": {"norad_id": 66712, "name": "FLOCK 4H-9", "group": "last-30-days", "lat": 82.32060967840958, "lon": -3.8310603203478517, "alt_km": 505.3095731682579, "timestamp": "2025-12-26T09:30:52.341228+00:00", "meta": {"OBJECT_NAME": "FLOCK 4H-9", "OBJECT_ID": "2025-276AY", "EPOCH": "2025-12-26T02:47:57.524064", "MEAN_MOTION": 15.17958197, "ECCENTRICITY": 0.0002932, "INCLINATION": 97.4417, "RA_OF_ASC_NODE": 71.6754, "ARG_OF_PERICENTER": 201.5166, "MEAN_ANOMALY": 158.5945, "EPHEMERIS_TYPE": 0, "CLASSIFICATION_TYPE": "U", "NORAD_CAT_ID": 66712, "ELEMENT_SET_NO": 999, "REV_AT_EPOCH": 415, "BSTAR": 0.00033405, "MEAN_MOTION_DOT": 6.719e-05, "MEAN_MOTION_DDOT": 0}, "tle": {"line1": "1 66712U 25276AY  25360.11663801  .00006719  00000+0  33405-3 0  9996", "line2": "2 66712  97.4417  71.6754 0002932 201.5166 158.5945 15.17958197  4153"}}, "geometry": {"type": "Point", "coordinates": [-3.8310603203478517, 82.32060967840958]}}, {"type": "Feature", "properties": {"norad_id": 66713, "name": "FLOCK 4H-10", "group": "last-30-days", "lat": 21.83636619385493, "lon": 68.90748833101634, "alt_km": 515.722942249944, "timestamp": "2025-12-26T09:30:52.341238+00:00", "meta": {"OBJECT_NAME": "FLOCK 4H-10", "OBJECT_ID": "2025-276AZ", "EPOCH": "2025-12-25T11:15:33.486912", "MEAN_MOTION": 15.17312979, "ECCENTRICITY": 0.00034593, "INCLINATION": 97.4392, "RA_OF_ASC_NODE": 70.9982, "ARG_OF_PERICENTER": 240.4175, "MEAN_ANOMALY": 119.6714, "EPHEMERIS_TYPE": 0, "CLASSIFICATION_TYPE": "U", "NORAD_CAT_ID": 66713, "ELEMENT_SET_NO": 999, "REV_AT_EPOCH": 405, "BSTAR": 0.00051282126, "MEAN_MOTION_DOT": 0.00010165, "MEAN_MOTION_DDOT": 0}, "tle": {"line1": "1 66713U 25276AZ  25359.46913758  .00010165  00000+0  51282-3 0  9995", "line2": "2 66713  97.4392  70.9982 0003459 240.4175 119.6714 15.17312979  4051"}}, "geometry": {"type": "Point", "coordinates": [68.90748833101634, 21.83636619385493]}}, {"type": "Feature", "properties": {"norad_id": 66714, "name": "FLOCK 4H-11", "group": "last-30-days", "lat": 56.69019778789345, "lon": 60.46365481320847, "alt_km": 508.20204685416047, "timestamp": "2025-12-26T09:30:52.341248+00:00", "meta": {"OBJECT_NAME": "FLOCK 4H-11", "OBJECT_ID": "2025-276BA", "EPOCH": "2025-12-26T04:30:56.858112", "MEAN_MOTION": 15.17867519, "ECCENTRICITY": 0.000202, "INCLINATION": 97.4409, "RA_OF_ASC_NODE": 71.7309, "ARG_OF_PERICENTER": 256.4833, "MEAN_ANOMALY": 103.6176, "EPHEMERIS_TYPE": 0, "CLASSIFICATION_TYPE": "U", "NORAD_CAT_ID": 66714, "ELEMENT_SET_NO": 999, "REV_AT_EPOCH": 416, "BSTAR": 0.0005236, "MEAN_MOTION_DOT": 0.00010546, "MEAN_MOTION_DDOT": 0}, "tle": {"line1": "1 66714U 25276BA  25360.18815808  .00010546  00000+0  52360-3 0  9995", "line2": "2 66714  97.4409  71.7309 0002020 256.4833 103.6176 15.17867519  4166"}}, "geometry": {"type": "Point", "coordinates": [60.46365481320847, 56.69019778789345]}}, {"type": "Feature", "properties": {"norad_id": 66715, "name": "FLOCK 4H-12", "group": "last-30-days", "lat": 76.21991238360214, "lon": -75.874405777165, "alt_km": 503.84395793184285, "timestamp": "2025-12-26T09:30:52.341258+00:00", "meta": {"OBJECT_NAME": "FLOCK 4H-12", "OBJECT_ID": "2025-276BB", "EPOCH": "2025-12-26T04:19:21.974016", "MEAN_MOTION": 15.18117609, "ECCENTRICITY": 0.0002215, "INCLINATION": 97.4384, "RA_OF_ASC_NODE": 71.7242, "ARG_OF_PERICENTER": 173.8479, "MEAN_ANOMALY": 186.2782, "EPHEMERIS_TYPE": 0, "CLASSIFICATION_TYPE": "U", "NORAD_CAT_ID": 66715, "ELEMENT_SET_NO": 999, "REV_AT_EPOCH": 447, "BSTAR": 0.00045008, "MEAN_MOTION_DOT": 9.12e-05, "MEAN_MOTION_DDOT": 0}, "tle": {"line1": "1 66715U 25276BB  25360.18011544  .00009120  00000+0  45008-3 0  9998", "line2": "2 66715  97.4384  71.7242 0002215 173.8479 186.2782 15.18117609  4472"}}, "geometry": {"type": "Point", "coordinates": [-75.874405777165, 76.21991238360214]}}, {"type": "Feature", "properties": {"norad_id": 66716, "name": "FLOCK 4H-13", "group": "last-30-days", "lat": 64.48478351225894, "lon": -92.14689468340077, "alt_km": 503.6753401312717, "timestamp": "2025-12-26T09:30:52.341268+00:00", "meta": {"OBJECT_NAME": "FLOCK 4H-13", "OBJECT_ID": "2025-276BC", "EPOCH": "2025-12-26T00:00:02.000160", "MEAN_MOTION": 15.18218609, "ECCENTRICITY": 0.0001902, "INCLINATION": 97.4419, "RA_OF_ASC_NODE": 71.5693, "ARG_OF_PERICENTER": 138.07, "MEAN_ANOMALY": 331.0846, "EPHEMERIS_TYPE": 0, "CLASSIFICATION_TYPE": "U", "NORAD_CAT_ID": 66716, "ELEMENT_SET_NO": 999, "REV_AT_EPOCH": 258, "BSTAR": 0.0014352, "MEAN_MOTION_DOT": 0.00029392, "MEAN_MOTION_DDOT": 0}, "tle": {"line1": "1 66716U 25276BC  25360.00002315  .00029392  00000+0  14352-2 0  9996", "line2": "2 66716  97.4419  71.5693 0001902 138.0700 331.0846 15.18218609  2585"}}, "geometry": {"type": "Point", "coordinates": [-92.14689468340077, 64.48478351225894]}}]}